AMC-6 (GE-6)            
1 26580U 00067A   17160.39832650 -.00000186  00000-0  00000-0 0  9991
2 26580   0.0377 297.5851 0000725 194.7499 186.5525  1.00015942 60936
INTELSAT 12 (IS-12)     
1 26590U 00068A   17160.95947681  .00000137  00000-0  00000-0 0  9991
2 26590   0.4705  93.2780 0002970  24.5166 171.1095  1.00272384 18685
INTELSAT 1R (IS-1R)     
1 26608U 00072A   17160.16785392 -.00000060  00000-0  00000-0 0  9994
2 26608   0.3005  93.1299 0001140  74.7905 320.2872  1.00085459  8287
ANIK F1                 
1 26624U 00076A   17160.58110660 -.00000073  00000-0  00000-0 0  9996
2 26624   0.0084 359.4672 0002853 102.5629 258.0019  1.00270341 10096
ASTRA 2D                
1 26638U 00081A   17160.31151847  .00000046  00000-0  00000-0 0  9999
2 26638   3.6364  70.0922 0001727   4.2719 355.3323  1.00271410 60342
AMC-8 (GE-8)            
1 26639U 00081B   17160.50532133  .00000105  00000-0  00000-0 0  9998
2 26639   0.0185  21.6463 0002293  54.3614 224.9599  1.00270645 60318
SKYNET 4F               
1 26695U 01005B   17159.88858042 -.00000252  00000-0  00000-0 0  9990
2 26695   8.8900  36.7027 0002878  31.6186 115.0395  1.00273112 59836
EUTELSAT 33C            
1 26719U 01011A   17160.96384814  .00000156  00000-0  00000-0 0  9998
2 26719   0.0668  19.6270 0004039  46.7975 212.1574  1.00274365 59516
INTELSAT 10 (IS-10)     
1 26766U 01019A   17160.96496203  .00000125  00000-0  00000-0 0  9990
2 26766   1.5031  85.2438 0002753 335.2666 232.8946  1.00274618 12609
INTELSAT 901 (IS-901)   
1 26824U 01024A   17160.54779837 -.00000140  00000-0  00000-0 0  9990
2 26824   0.0159 357.5269 0002696  71.2478   8.5307  1.00273327 58560
ASTRA 2C                
1 26853U 01025A   17160.78766157  .00000046  00000-0  00000-0 0  9994
2 26853   0.3852  91.4757 0003582 345.9172 164.8064  1.00274823 58544
ARTEMIS                 
1 26863U 01029A   17160.93023631 -.00000373  00000-0  00000-0 0  9993
2 26863  12.7246  33.1446 0002218  69.6977 253.5697  1.00271043 11116
INTELSAT 902 (IS-902)   
1 26900U 01039A   17160.93105001  .00000033  00000-0  00000-0 0  9990
2 26900   0.0120  99.3347 0002917 341.5374 214.7832  1.00271579 57688
EUTELSAT 12 WEST B      
1 26927U 01042A   17160.84092494 -.00000100  00000-0  00000-0 0  9990
2 26927   0.0401  15.0286 0005643  52.9031 120.6847  1.00273299 57488
DIRECTV 4S              
1 26985U 01052A   17160.53789486 -.00000112  00000-0  00000-0 0  9998
2 26985   0.0217 356.7749 0002346  93.2944 260.4439  1.00269750 56963
INSAT-3C                
1 27298U 02002A   17160.93812679 -.00000258  00000-0  00000-0 0  9998
2 27298   0.6101  91.6245 0001779 218.5843  19.4845  1.00271400 56377
ECHOSTAR 7              
1 27378U 02006A   17160.48080399 -.00000000  00000-0  00000-0 0  9992
2 27378   0.0204 314.7730 0002181 143.1920 214.3558  1.00271791 17602
INTELSAT 904 (IS-904)   
1 27380U 02007A   17160.81170279  .00000137  00000-0  00000-0 0  9990
2 27380   0.0483 123.8039 0002863 312.6261 159.2486  1.00272811 18739
TDRS 9                  
1 27389U 02011A   17160.81026968 -.00000101  00000-0  00000-0 0  9991
2 27389   5.2355  79.1681 0017807 252.7008 206.1193  1.00272842 57415
JCSAT 2A                
1 27399U 02015A   17160.87109514 -.00000306  00000-0  00000-0 0  9998
2 27399   0.4645  92.8025 0001061  26.6527 228.5575  1.00276397 55585
ASTRA 3A                
1 27400U 02015B   17159.60628922 -.00000283  00000-0  00000-0 0  9993
2 27400   3.7989  68.8285 0003339  18.3722 341.2632  1.00273678 55688
INTELSAT 903 (IS-903)   
1 27403U 02016A   17160.41698451 -.00000238  00000-0  00000-0 0  9992
2 27403   0.0144 333.1150 0003085 102.4527 298.0208  1.00272856 12632
NSS-7                   
1 27414U 02019A   17160.56723675 -.00000156  00000-0  00000-0 0  9999
2 27414   1.8801  83.1005 0002418 358.6816   0.5410  1.00271560 55537
DIRECTV 5 (TEMPO 1)     
1 27426U 02023A   17160.58893847 -.00000055  00000-0  00000-0 0  9996
2 27426   0.0235 347.4781 0003626  92.0665 280.4962  1.00270306 55271
INTELSAT 905 (IS-905)   
1 27438U 02027A   17160.48809425 -.00000184  00000-0  00000-0 0  9994
2 27438   0.0183 339.9027 0002989  89.5104 339.8481  1.00269793 18334
EXPRESS-A4              
1 27441U 02029A   17159.91232296 -.00000251  00000-0  00000-0 0  9997
2 27441   6.0485  56.5619 0004077  51.6175 262.9729  1.00266204 54926
GALAXY 3C (G-3C)        
1 27445U 02030A   17159.54981958 -.00000152  00000-0  00000-0 0  9998
2 27445   0.0155 322.0662 0002131 335.8046  62.1107  1.00273355 54914
EUTELSAT 5 WEST A       
1 27460U 02035A   17160.29780544 -.00000042  00000-0  00000-0 0  9990
2 27460   0.0401   1.3888 0005441  74.5226 284.1530  1.00272303 54712
N-STAR C                
1 27461U 02035B   17160.68406164 -.00000312  00000-0  00000-0 0  9997
2 27461   4.6189  64.8435 0004573 350.2211 225.4324  1.00273733 54628
EUTELSAT 36 WEST A      
1 27508U 02040A   17160.38357588 -.00000244  00000-0  00000-0 0  9991
2 27508   0.0688  21.8175 0004631  23.3354 314.8886  1.00273781 54213
METEOSAT-8 (MSG-1)      
1 27509U 02040B   17160.88989748  .00000140  00000-0  00000-0 0  9990
2 27509   4.8293  58.3879 0000778 197.7695   4.1753  1.00263907 54228
INTELSAT 906 (IS-906)   
1 27513U 02041A   17160.93105001  .00000015  00000-0  00000-0 0  9995
2 27513   0.0151 311.8879 0002702 141.0908 204.8327  1.00271857 54004
KODAMA (DRTS)           
1 27516U 02042B   17159.70327067 -.00000242  00000-0  00000-0 0  9993
2 27516   5.0283  62.1212 0003496  18.7897 160.2506  1.00266702 54000
KALPANA-1 (METSAT 1)    
1 27525U 02043A   17160.23250926 -.00000083  00000-0  00000-0 0  9996
2 27525   6.3381  55.2906 0012528 233.7706 125.9195  1.00272176 54004
HISPASAT 1D             
1 27528U 02044A   17160.90726601 -.00000215  00000-0  00000-0 0  9999
2 27528   0.0232 343.5336 0004091  79.9480 131.5972  1.00271839  9784
TDRS 10                 
1 27566U 02055A   17159.93078992  .00000076  00000-0  00000-0 0  9991
2 27566   5.0217  58.4553 0007308 247.3767 112.2829  1.00271239 53195
NSS-6                   
1 27603U 02057A   17160.94193743 -.00000270  00000-0  00000-0 0  9997
2 27603   0.0327  78.7135 0001388   5.4792 248.4105  1.00271735 53064
NIMIQ 2                 
1 27632U 02062A   17160.33892096 -.00000281  00000-0  00000-0 0  9997
2 27632   1.9802  82.0494 0001772 231.3390   3.4488  1.00268806 52833
INTELSAT 907 (IS-907)   
1 27683U 03007A   17160.36005703 -.00000202  00000-0  00000-0 0  9990
2 27683   0.0199 323.3003 0003011 118.1121 278.6217  1.00270215 52357
GALAXY 12 (G-12)        
1 27715U 03013B   17160.47768385  .00000059  00000-0  00000-0 0  9996
2 27715   0.0209 353.1003 0002145 104.6353 203.2547  1.00269111 51969
ASIASAT 4               
1 27718U 03014A   17160.63382662 -.00000360  00000-0  00000-0 0  9994
2 27718   0.0557 116.1943 0000380 256.0141 236.2304  1.00268786 51889
HELLAS-SAT 2            
1 27811U 03020A   17160.91993550  .00000153  00000-0  00000-0 0  9999
2 27811   0.0203  61.0753 0004056  16.0227 191.5146  1.00272548  9826
AMC-9 (GE-12)           
1 27820U 03024A   17160.39831125 -.00000215  00000-0  00000-0 0  9994
2 27820   0.0175 340.6744 0002868  90.4474 247.2212  1.00271055 51348
THURAYA-2               
1 27825U 03026A   17160.82941919  .00000129  00000-0  00000-0 0  9995
2 27825   4.9097  29.1468 0005033  39.2220 172.5824  1.00272815 51319
OPTUS C1                
1 27831U 03028B   17160.62535274 -.00000147  00000-0  00000-0 0  9996
2 27831   0.0219 119.5727 0003786 340.9456 178.7951  1.00269693 51282
ECHOSTAR 12 (RAINBOW 1) 
1 27852U 03033A   17160.42688211 -.00000282  00000-0  00000-0 0  9993
2 27852   0.0117 330.5764 0002181  69.4548 310.4207  1.00274894 50941
GALAXY 23 (G-23)        
1 27854U 03034A   17160.30739949  .00000013  00000-0  00000-0 0  9999
2 27854   0.0092  45.9852 0002817  23.5676 177.9780  1.00270811 50700
EUTELSAT 33A            
1 27948U 03043A   17160.81132164  .00000152  00000-0  00000-0 0  9999
2 27948   2.3583  78.3607 0001997 244.7239 258.1978  1.00273818 12442
GALAXY 13 (HORIZONS-1)  
1 27954U 03044A   17160.48421369  .00000049  00000-0  00000-0 0  9993
2 27954   0.0120  98.4042 0002132 329.0939 237.8427  1.00270211 13542
ZHONGXING-20            
1 28082U 03052A   17160.89178362 -.00000326  00000-0  00000-0 0  9991
2 28082   3.4950  71.3582 0002969 344.8564 266.5524  1.00270073 49721
YAMAL 202               
1 28089U 03053A   17160.11663742  .00000119  00000-0  00000-0 0  9994
2 28089   0.0561 111.3301 0004136 301.6499 295.7090  1.00276418 49630
EXPRESS-AM22 (SESAT 2)  
1 28134U 03060A   17160.85570479 -.00000137  00000-0  00000-0 0  9999
2 28134   0.4369  91.3904 0000615  20.2847 174.8873  1.00271978 49245
AMC-10 (GE-10)          
1 28154U 04003A   17160.60063716  .00000088  00000-0  00000-0 0  9997
2 28154   0.0116 349.1212 0003092  92.4688 257.7903  1.00272184 48878
ABS-4 (MOBISAT-1)       
1 28184U 04007A   17160.93105001  .00000041  00000-0  00000-0 0  9993
2 28184   0.0029   6.8910 0001761  78.1660 209.5782  1.00272021 19304
EUTELSAT 7A             
1 28187U 04008A   17160.90118973  .00000048  00000-0  00000-0 0  9993
2 28187   0.0677  20.2170 0004432  79.6978 129.9563  1.00271454 48358
DIRECTV 7S              
1 28238U 04016A   17160.52896479  .00000002  00000-0  00000-0 0  9991
2 28238   0.0146 355.4824 0003185  81.5578 252.4003  1.00271722 48031
AMC-11 (GE-11)          
1 28252U 04017A   17160.44494312  .00000069  00000-0  00000-0 0  9992
2 28252   0.0186   7.5126 0002861  71.5609 208.1005  1.00272313 47660
INTELSAT 10-02          
1 28358U 04022A   17160.68600478 -.00000011  00000-0  00000-0 0  9991
2 28358   0.0133  12.0588 0000528  26.9132 105.2316  1.00269332 47596
APSTAR 5 (TELSTAR 18)   
1 28364U 04024A   17160.36810274 -.00000294  00000-0  00000-0 0  9995
2 28364   0.0017   3.6846 0003120  84.1738  80.5799  1.00270717 47584
